H1 CPF 01  gfz 2022 02 02 01  5331 terrasarx 
H2 0702601  6201 31698    2022 02 02 00 59 42 2022 02 07 00 00 42   120 1 1  0 0 0
H9
10 0 59613  66222.000000  0    -777265.649    967341.064  -6782399.876
10 0 59613  66342.000000  0     135576.962    884975.692  -6836650.603
10 0 59613  66462.000000  0    1044359.406    771348.136  -6771678.620
10 0 59613  66582.000000  0    1932814.485    628637.355  -6588600.608
10 0 59613  66702.000000  0    2785059.766    459805.002  -6290566.629
10 0 59613  66822.000000  0    3585876.802    268537.894  -5882711.599
10 0 59613  66942.000000  0    4320979.984     59172.687  -5372074.959
10 0 59613  67062.000000  0    4977271.751   -163395.073  -4767490.822
10 0 59613  67182.000000  0    5543082.118   -393816.352  -4079446.817
10 0 59613  67302.000000  0    6008384.581   -626407.110  -3319911.487
10 0 59613  67422.000000  0    6364984.669   -855277.436  -2502134.035
10 0 59613  67542.000000  0    6606677.202  -1074468.896  -1640417.628
10 0 59613  67662.000000  0    6729366.748  -1278096.090   -749869.252
10 0 59613  67782.000000  0    6731147.409  -1460489.455    153868.235
10 0 59613  67902.000000  0    6612340.340  -1616335.776   1054897.068
10 0 59613  68022.000000  0    6375485.587  -1740812.740   1937352.800
10 0 59613  68142.000000  0    6025289.768  -1829714.140   2785692.713
10 0 59613  68262.000000  0    5568529.106  -1879561.154   3584978.544
10 0 59613  68382.000000  0    5013911.150  -1887698.466   4321145.404
10 0 59613  68502.000000  0    4371899.973  -1852371.941   4981251.982
10 0 59613  68622.000000  0    3654510.501  -1772785.852   5553708.528
10 0 59613  68742.000000  0    2875074.412  -1649139.755   6028479.176
10 0 59613  68862.000000  0    2047984.236  -1482643.458   6397252.385
10 0 59613  68982.000000  0    1188422.666  -1275510.785   6653580.701
10 0 59613  69102.000000  0     312080.134  -1030931.339   6792987.852
10 0 59613  69222.000000  0    -565132.943   -753020.754   6813041.219
10 0 59613  69342.000000  0   -1427373.961   -446751.245   6713390.561
10 0 59613  69462.000000  0   -2259152.726   -117862.937   6495773.659
10 0 59613  69582.000000  0   -3045608.500    227242.984   6163988.440
10 0 59613  69702.000000  0   -3772776.327    581627.409   5723831.882
10 0 59613  69822.000000  0   -4427838.803    937950.526   5183004.944
10 0 59613  69942.000000  0   -4999357.917   1288621.340   4550983.854
10 0 59613  70062.000000  0   -5477482.886   1625957.048   3838859.001
10 0 59613  70182.000000  0   -5854128.226   1942348.252   3059143.052
10 0 59613  70302.000000  0   -6123119.123   2230426.772   2225552.273
10 0 59613  70422.000000  0   -6280301.149   2483232.203   1352763.649
10 0 59613  70542.000000  0   -6323610.574   2694373.464    456150.818
10 0 59613  70662.000000  0   -6253101.509   2858180.185   -448494.761
10 0 59613  70782.000000  0   -6070930.663   2969840.294  -1345250.769
10 0 59613  70902.000000  0   -5781299.504   3025520.336  -2218353.045
10 0 59613  71022.000000  0   -5390355.146   3022465.894  -3052481.267
10 0 59613  71142.000000  0   -4906052.428   2959078.333  -3833032.753
10 0 59613  71262.000000  0   -4337982.675   2834967.487  -4546379.287
10 0 59613  71382.000000  0   -3697173.781   2650978.927  -5180101.893
10 0 59613  71502.000000  0   -2995867.362   2409195.892  -5723199.391
10 0 59613  71622.000000  0   -2247279.926   2112917.325  -6166269.539
10 0 59613  71742.000000  0   -1465350.024   1766611.571  -6501661.844
10 0 59613  71862.000000  0    -664478.329   1375846.952  -6723597.065
10 0 59613  71982.000000  0     140733.829    947201.565  -6828256.474
10 0 59613  72102.000000  0     935743.950    488153.982  -6813840.143
10 0 59613  72222.000000  0    1706325.349      6955.519  -6680596.613
10 0 59613  72342.000000  0    2438816.481   -487514.906  -6430817.918
10 0 59613  72462.000000  0    3120358.013   -985910.011  -6068804.842
10 0 59613  72582.000000  0    3739116.332  -1478586.010  -5600799.944
10 0 59613  72702.000000  0    4284489.141  -1955784.491  -5034891.149
10 0 59613  72822.000000  0    4747291.809  -2407823.714  -4380883.439
10 0 59613  72942.000000  0    5119918.371  -2825293.617  -3650139.323
10 0 59613  73062.000000  0    5396475.186  -3199250.958  -2855390.596
10 0 59613  73182.000000  0    5572884.195  -3521410.621  -2010522.023
10 0 59613  73302.000000  0    5646951.203  -3784328.222  -1130330.560
10 0 59613  73422.000000  0    5618397.956  -3981570.251   -230264.770
10 0 59613  73542.000000  0    5488856.169  -4107866.310    673851.370
10 0 59613  73662.000000  0    5261822.702  -4159240.324   1566104.514
10 0 59613  73782.000000  0    4942576.092  -4133115.601   2430781.715
10 0 59613  73902.000000  0    4538056.918  -4028389.961   3252655.573
10 0 59613  74022.000000  0    4056716.516  -3845481.369   4017258.742
10 0 59613  74142.000000  0    3508337.442  -3586343.181   4711143.762
10 0 59613  74262.000000  0    2903828.277  -3254447.028   5322121.802
10 0 59613  74382.000000  0    2255001.432  -2854734.649   5839475.178
10 0 59613  74502.000000  0    1574337.083  -2393540.594   6254142.030
10 0 59613  74622.000000  0     874739.111  -1878488.035   6558868.869
10 0 59613  74742.000000  0     169288.367  -1318359.684   6748331.358
10 0 59613  74862.000000  0    -529002.281   -722945.842   6819221.703
10 0 59613  74982.000000  0   -1207427.027   -102872.232   6770302.126
10 0 59613  75102.000000  0   -1853817.242    530589.227   6602425.104
10 0 59613  75222.000000  0   -2456758.988   1165724.661   6318519.528
10 0 59613  75342.000000  0   -3005794.894   1790593.808   5923542.957
10 0 59613  75462.000000  0   -3491607.245   2393253.932   5424400.963
10 0 59613  75582.000000  0   -3906180.257   2961989.314   4829833.113
10 0 59613  75702.000000  0   -4242937.288   3485541.252   4150265.308
10 0 59613  75822.000000  0   -4496851.035   3953334.115   3397631.498
10 0 59613  75942.000000  0   -4664523.596   4355692.871   2585165.906
10 0 59613  76062.000000  0   -4744233.321   4684047.737   1727169.404
10 0 59613  76182.000000  0   -4735947.660   4931119.619    838753.289
10 0 59613  76302.000000  0   -4641302.220   5091080.389    -64433.250
10 0 59613  76422.000000  0   -4463546.928   5159686.554   -966486.604
10 0 59613  76542.000000  0   -4207457.755   5134381.353  -1851540.064
10 0 59613  76662.000000  0   -3879215.963   5014360.448  -2704050.855
10 0 59613  76782.000000  0   -3486262.548   4800603.179  -3509079.887
10 0 59613  76902.000000  0   -3037127.932   4495865.819  -4252556.288
10 0 59613  77022.000000  0   -2541244.290   4104640.176  -4921520.928
10 0 59613  77142.000000  0   -2008745.542   3633080.267  -5504345.625
10 0 59613  77262.000000  0   -1450259.636   3088898.898  -5990927.498
10 0 59613  77382.000000  0    -876696.165   2481234.415  -6372854.625
10 0 59613  77502.000000  0    -299034.580   1820492.212  -6643539.641
10 0 59613  77622.000000  0     271882.300   1118165.290  -6798322.145
10 0 59613  77742.000000  0     825546.549    386636.149  -6834540.859
10 0 59613  77862.000000  0    1351974.655   -361037.574  -6751575.167
10 0 59613  77982.000000  0    1841883.173  -1111351.539  -6550853.076
10 0 59613  78102.000000  0    2286848.286  -1850592.035  -6235828.989
10 0 59613  78222.000000  0    2679448.920  -2565080.281  -5811930.885
10 0 59613  78342.000000  0    3013390.802  -3241421.609  -5286478.210
10 0 59613  78462.000000  0    3283610.549  -3866757.582  -4668566.237
10 0 59613  78582.000000  0    3486354.525  -4429011.454  -3968917.466
10 0 59613  78702.000000  0    3619233.013  -4917124.201  -3199706.298
10 0 59613  78822.000000  0    3681249.946  -5321279.006  -2374355.949
10 0 59613  78942.000000  0    3672804.127  -5633107.299  -1507307.290
10 0 59613  79062.000000  0    3595662.366  -5845868.839   -613765.915
10 0 59613  79182.000000  0    3452904.379  -5954603.094    290569.027
10 0 59613  79302.000000  0    3248839.471  -5956245.681   1189787.293
10 0 59613  79422.000000  0    2988899.205  -5849708.428   2068056.157
10 0 59613  79542.000000  0    2679506.089  -5635917.486   2909909.333
10 0 59613  79662.000000  0    2327922.444  -5317810.769   3700526.322
10 0 59613  79782.000000  0    1942084.883  -4900296.026   4425998.227
10 0 59613  79902.000000  0    1530427.750  -4390169.525   5073575.688
10 0 59613  80022.000000  0    1101700.792  -3795997.927   5631893.254
10 0 59613  80142.000000  0     664783.151  -3127965.361   6091167.316
10 0 59613  80262.000000  0     228499.533  -2397690.483   6443361.112
10 0 59613  80382.000000  0    -198556.750  -1618019.195   6682318.219
10 0 59613  80502.000000  0    -608191.328   -802796.473   6803864.390
10 0 59613  80622.000000  0    -992764.740     33381.022   6805877.106
10 0 59613  80742.000000  0   -1345334.108    875426.694   6688320.174
10 0 59613  80862.000000  0   -1659778.006   1708035.565   6453243.971
10 0 59613  80982.000000  0   -1930902.970   2515961.512   6104752.089
10 0 59613  81102.000000  0   -2154529.998   3284296.684   5648934.035
10 0 59613  81222.000000  0   -2327559.346   3998748.145   5093764.760
10 0 59613  81342.000000  0   -2448013.734   4645908.270   4448972.266
10 0 59613  81462.000000  0   -2515058.039   5213513.338   3725872.261
10 0 59613  81582.000000  0   -2528995.014   5690684.350   2937172.201
10 0 59613  81702.000000  0   -2491236.531   6068143.655   2096747.687
10 0 59613  81822.000000  0   -2404251.497   6338403.228   1219395.937
10 0 59613  81942.000000  0   -2271490.825   6495919.595    320569.995
10 0 59613  82062.000000  0   -2097291.659   6537211.217   -583900.754
10 0 59613  82182.000000  0   -1886763.509   6460935.660  -1478098.613
10 0 59613  82302.000000  0   -1645657.783   6267921.883  -2346309.721
10 0 59613  82422.000000  0   -1380224.436   5961154.485  -3173307.294
10 0 59613  82542.000000  0   -1097061.646   5545718.142  -3944620.411
10 0 59613  82662.000000  0    -802961.949   5028702.340  -4646787.418
99
